GSAT0220 (GALILEO 24)   
1 43567U 18060D   24141.27158078 -.00000079  00000+0  00000+0 0  9995
2 43567  57.3063   2.2230 0003937 307.6067  52.4102  1.70475849 36256
BEIDOU-3 M13            
1 43622U 18072A   24142.43054986 -.00000017  00000+0  00000+0 0  9994
2 43622  55.9735  87.7720 0008311 305.4748  54.4098  1.86231546 38566
BEIDOU-3 M14            
1 43623U 18072B   24142.29600530 -.00000017  00000+0  00000+0 0  9991
2 43623  55.9752  87.7695 0006382 328.0933  31.8303  1.86231532 38552
GPS BIII-1              
1 43873U 18109A   24142.90936645  .00000057  00000+0  00000+0 0  9999
2 43873  55.2879 122.0661 0028835 195.8298 340.3893  2.00554927 39904
METEOR-M2 2             
1 44387U 19038A   24143.50204755  .00000139  00000+0  80155-4 0  9994
2 44387  98.8254 112.6275 0002205  59.8687 300.2709 14.23887222253730
GPS BIII-2              
1 44506U 19056A   24142.55783106 -.00000078  00000+0  00000+0 0  9992
2 44506  55.8405   1.1373 0041272 188.1028 354.5287  2.00571742 34893
BEIDOU-3 M23            
1 44542U 19061A   24143.21036114  .00000068  00000+0  00000+0 0  9990
2 44542  54.4446 208.2370 0007333 346.8561  13.2145  1.86231289 31717
BEIDOU-3 M24            
1 44543U 19061B   24142.79841172  .00000065  00000+0  00000+0 0  9998
2 44543  54.4428 208.2201 0004767 327.4021  28.7097  1.86231780 31707
BEIDOU-3 M21            
1 44793U 19078A   24142.51916181 -.00000070  00000+0  00000+0 0  9993
2 44793  54.5832 326.2880 0006667  31.6500 328.3980  1.86232310 30557
BEIDOU-3 M22            
1 44794U 19078B   24143.18596548 -.00000069  00000+0  00000+0 0  9997
2 44794  54.5562 326.2416 0004504  30.0830 329.9490  1.86232714 30573
ELEKTRO-L 3             
1 44903U 19095A   24142.90501531 -.00000077  00000+0  00000+0 0  9994
2 44903   0.0847  70.8702 0001357 355.9780 215.0415  1.00272461 16118
GPS BIII-3              
1 45854U 20041A   24142.60592611 -.00000066  00000+0  00000+0 0  9997
2 45854  56.1013  58.4719 0041990 193.2814 320.5343  2.00559222 28860
COSMOS 2547             
1 46805U 20075A   24142.49573823  .00000046  00000+0  00000+0 0  9999
2 46805  64.5994 217.7696 0008050 239.5470 120.4423  2.13103193 27786
GPS BIII-4              
1 46826U 20078A   24143.48854847  .00000010  00000+0  00000+0 0  9994
2 46826  54.1906 241.4532 0045265 196.1008 213.1607  2.00560373 26342
GSAT0223 (GALILEO 27)   
1 49809U 21116A   24142.63383998 -.00000074  00000+0  00000+0 0  9993
2 49809  57.2961   2.0807 0000655 143.9074  62.5572  1.70475918 15277
GSAT0224 (GALILEO 28)   
1 49810U 21116B   24138.30257660 -.00000092  00000+0  00000+0 0  9990
2 49810  57.2968   2.1954 0001027  83.3486  97.4215  1.70475970 15233
GOES 18                 
1 51850U 22021A   24143.50685236  .00000118  00000+0  00000+0 0  9993
2 51850   0.0040  54.0791 0000561 341.7348 250.2737  1.00271846  8220
METEOR-M2 3             
1 57166U 23091A   24143.46703587  .00000103  00000+0  64116-4 0  9999
2 57166  98.7142 198.3688 0003733 188.2961 171.8157 14.23894066 46960
METEOR-M2 4             
1 59051U 24039A   24143.52661632  .00000111  00000+0  69301-4 0  9998
2 59051  98.5962 106.0543 0006693 189.9808 170.1238 14.22226194 11846
